[
    {
        "Altitude(m)": 604221.2268644844,
        "Argument of Periapsis(deg)": 0.0,
        "Eccentricity": 0.0,
        "Inclination(deg)": 60.0,
        "Latitude(deg)": 14.117374376368497,
        "Longitude(deg)": 68.33413637249578,
        "Mean Anomaly(deg)": 16.363600000000012,
        "RAAN(deg)": 160.0,
        "Satellite Name": "Test1 705",
        "Satellite Number": 705,
        "Semi-Major Axis(m)": 6980739.136638005,
        "Time(s)": 0
    },
    {
        "Altitude(m)": 604235.3686203497,
        "Argument of Periapsis(deg)": 0.00010418945913296404,
        "Eccentricity": 0.0,
        "Inclination(deg)": 60.0,
        "Latitude(deg)": 14.651771484392954,
        "Longitude(deg)": 68.62258279532998,
        "Mean Anomaly(deg)": 16.983706145461838,
        "RAAN(deg)": 159.99957995086024,
        "Satellite Name": "Test1 705",
        "Satellite Number": 705,
        "Semi-Major Axis(m)": 6980739.136638005,
        "Time(s)": 10
    }
]